{"type": "FeatureCollection", "features": [ {"type": "Feature", "properties": {"norad_id": 60989, "name": "SENTINEL-2C", "group": "resource", "lat": 4.928278419338632, "lon": 63.64685909241012, "alt_km": 791.2716477739668, "timestamp": "2025-12-17T23:38:06.521047+00:00", "meta": {"OBJECT_NAME": "SENTINEL-2C", "OBJECT_ID": "2024-157A", "EPOCH": "2025-12-17T15:13:13.141632", "MEAN_MOTION": 14.30819503, "ECCENTRICITY": 0.00012278, "INCLINATION": 98.5679, "RA_OF_ASC_NODE": 64.0462, "ARG_OF_PERICENTER": 96.8393, "MEAN_ANOMALY": 263.2929, "EPHEMERIS_TYPE": 0, "CLASSIFICATION_TYPE": "U", "NORAD_CAT_ID": 60989, "ELEMENT_SET_NO": 999, "REV_AT_EPOCH": 6702, "BSTAR": 6.2207357e-05, "MEAN_MOTION_DOT": 1.19e-06, "MEAN_MOTION_DDOT": 0}, "tle": {"line1": "1 60989U 24157A   25351.63417988  .00000119  00000+0  62207-4 0  9994", "line2": "2 60989  98.5679  64.0462 0001227  96.8393 263.2929 14.30819503 67022"}}, "geometry": {"type": "Point", "coordinates": [63.64685909241012, 4.928278419338632]}}, {"type": "Feature", "properties": {"norad_id": 61735, "name": "IONOSFERA-M 1", "group": "resource", "lat": 60.006074213892816, "lon": 57.24967454420856, "alt_km": 810.4714477876851, "timestamp": "2025-12-17T23:38:06.521057+00:00", "meta": {"OBJECT_NAME": "IONOSFERA-M 1", "OBJECT_ID": "2024-199A", "EPOCH": "2025-12-17T14:38:22.657344", "MEAN_MOTION": 14.22715122, "ECCENTRICITY": 7.218e-05, "INCLINATION": 98.7401, "RA_OF_ASC_NODE": 221.4208, "ARG_OF_PERICENTER": 14.0683, "MEAN_ANOMALY": 346.0514, "EPHEMERIS_TYPE": 0, "CLASSIFICATION_TYPE": "U", "NORAD_CAT_ID": 61735, "ELEMENT_SET_NO": 999, "REV_AT_EPOCH": 10188, "BSTAR": 4.4181648e-05, "MEAN_MOTION_DOT": 5.5e-07, "MEAN_MOTION_DDOT": 0}, "tle": {"line1": "1 61735U 24199A   25351.60998446  .00000055  00000+0  44182-4 0  9991", "line2": "2 61735  98.7401 221.4208 0000721  14.0683 346.0514 14.22715122101882"}}, "geometry": {"type": "Point", "coordinates": [57.24967454420856, 60.006074213892816]}}, {"type": "Feature", "properties": {"norad_id": 61736, "name": "IONOSFERA-M 2", "group": "resource", "lat": -57.54758373863486, "lon": -124.2942492029927, "alt_km": 824.4313318232744, "timestamp": "2025-12-17T23:38:06.521067+00:00", "meta": {"OBJECT_NAME": "IONOSFERA-M 2", "OBJECT_ID": "2024-199B", "EPOCH": "2025-12-17T15:28:15.516192", "MEAN_MOTION": 14.2271727, "ECCENTRICITY": 0.00017515, "INCLINATION": 98.7407, "RA_OF_ASC_NODE": 221.3676, "ARG_OF_PERICENTER": 104.2388, "MEAN_ANOMALY": 255.8984, "EPHEMERIS_TYPE": 0, "CLASSIFICATION_TYPE": "U", "NORAD_CAT_ID": 61736, "ELEMENT_SET_NO": 999, "REV_AT_EPOCH": 10501, "BSTAR": 4.3219974e-05, "MEAN_MOTION_DOT": 5.3e-07, "MEAN_MOTION_DDOT": 0}, "tle": {"line1": "1 61736U 24199B   25351.64462403  .00000053  00000+0  43220-4 0  9995", "line2": "2 61736  98.7407 221.3676 0001751 104.2388 255.8984 14.22717270105018"}}, "geometry": {"type": "Point", "coordinates": [-124.2942492029927, -57.54758373863486]}}, {"type": "Feature", "properties": {"norad_id": 63772, "name": "BIOMASS", "group": "resource", "lat": -76.07346089324443, "lon": -37.98453174107327, "alt_km": 677.0553693619149, "timestamp": "2025-12-17T23:38:06.521078+00:00", "meta": {"OBJECT_NAME": "BIOMASS", "OBJECT_ID": "2025-090A", "EPOCH": "2025-12-17T12:38:31.581024", "MEAN_MOTION": 14.67538185, "ECCENTRICITY": 0.00011291, "INCLINATION": 98.07, "RA_OF_ASC_NODE": 176.4666, "ARG_OF_PERICENTER": 81.6745, "MEAN_ANOMALY": 278.4588, "EPHEMERIS_TYPE": 0, "CLASSIFICATION_TYPE": "U", "NORAD_CAT_ID": 63772, "ELEMENT_SET_NO": 999, "REV_AT_EPOCH": 3404, "BSTAR": 0.00020217054, "MEAN_MOTION_DOT": 1.099e-05, "MEAN_MOTION_DDOT": 0}, "tle": {"line1": "1 63772U 25090A   25351.52675441  .00001099  00000+0  20217-3 0  9994", "line2": "2 63772  98.0700 176.4666 0001129  81.6745 278.4588 14.67538185 34042"}}, "geometry": {"type": "Point", "coordinates": [-37.98453174107327, -76.07346089324443]}}, {"type": "Feature", "properties": {"norad_id": 64694, "name": "GOSAT-GW (IBUKI GW)", "group": "resource", "lat": 69.80867219070176, "lon": 130.01551634310226, "alt_km": 661.1794797499642, "timestamp": "2025-12-17T23:38:06.521087+00:00", "meta": {"OBJECT_NAME": "GOSAT-GW (IBUKI GW)", "OBJECT_ID": "2025-141A", "EPOCH": "2025-12-17T14:57:38.484576", "MEAN_MOTION": 14.67562756, "ECCENTRICITY": 0.00014349, "INCLINATION": 98.0432, "RA_OF_ASC_NODE": 287.0477, "ARG_OF_PERICENTER": 83.6558, "MEAN_ANOMALY": 276.4811, "EPHEMERIS_TYPE": 0, "CLASSIFICATION_TYPE": "U", "NORAD_CAT_ID": 64694, "ELEMENT_SET_NO": 999, "REV_AT_EPOCH": 2521, "BSTAR": 0.00015234471, "MEAN_MOTION_DOT": 8.17e-06, "MEAN_MOTION_DDOT": 0}, "tle": {"line1": "1 64694U 25141A   25351.62336209  .00000817  00000+0  15234-3 0  9992", "line2": "2 64694  98.0432 287.0477 0001434  83.6558 276.4811 14.67562756 25217"}}, "geometry": {"type": "Point", "coordinates": [130.01551634310226, 69.80867219070176]}}, {"type": "Feature", "properties": {"norad_id": 64876, "name": "IONOSFERA-M 3", "group": "resource", "lat": -38.024121132996825, "lon": -39.518351810798386, "alt_km": 826.8358745699543, "timestamp": "2025-12-17T23:38:06.521097+00:00", "meta": {"OBJECT_NAME": "IONOSFERA-M 3", "OBJECT_ID": "2025-155A", "EPOCH": "2025-12-17T15:22:08.857056", "MEAN_MOTION": 14.21442215, "ECCENTRICITY": 0.00021066, "INCLINATION": 98.5789, "RA_OF_ASC_NODE": 313.3679, "ARG_OF_PERICENTER": 52.0099, "MEAN_ANOMALY": 308.1269, "EPHEMERIS_TYPE": 0, "CLASSIFICATION_TYPE": "U", "NORAD_CAT_ID": 64876, "ELEMENT_SET_NO": 999, "REV_AT_EPOCH": 2061, "BSTAR": 4.3155589e-05, "MEAN_MOTION_DOT": 5.2e-07, "MEAN_MOTION_DDOT": 0}, "tle": {"line1": "1 64876U 25155A   25351.64038029  .00000052  00000+0  43156-4 0  9996", "line2": "2 64876  98.5789 313.3679 0002106  52.0099 308.1269 14.21442215 20619"}}, "geometry": {"type": "Point", "coordinates": [-39.518351810798386, -38.024121132996825]}}, {"type": "Feature", "properties": {"norad_id": 64877, "name": "IONOSFERA-M 4", "group": "resource", "lat": 37.1359638150723, "lon": 140.18597384824741, "alt_km": 817.667267135721, "timestamp": "2025-12-17T23:38:06.521107+00:00", "meta": {"OBJECT_NAME": "IONOSFERA-M 4", "OBJECT_ID": "2025-155B", "EPOCH": "2025-12-17T14:31:16.470336", "MEAN_MOTION": 14.2144339, "ECCENTRICITY": 0.00014908, "INCLINATION": 98.5787, "RA_OF_ASC_NODE": 313.253, "ARG_OF_PERICENTER": 58.6848, "MEAN_ANOMALY": 301.4476, "EPHEMERIS_TYPE": 0, "CLASSIFICATION_TYPE": "U", "NORAD_CAT_ID": 64877, "ELEMENT_SET_NO": 999, "REV_AT_EPOCH": 2060, "BSTAR": 4.3673002e-05, "MEAN_MOTION_DOT": 5.3e-07, "MEAN_MOTION_DDOT": 0}, "tle": {"line1": "1 64877U 25155B   25351.60505174  .00000053  00000+0  43673-4 0  9998", "line2": "2 64877  98.5787 313.2530 0001490  58.6848 301.4476 14.21443390 20602"}}, "geometry": {"type": "Point", "coordinates": [140.18597384824741, 37.1359638150723]}}, {"type": "Feature", "properties": {"norad_id": 64899, "name": "MICROCARB", "group": "resource", "lat": 8.581279737544811, "lon": -111.53758258282863, "alt_km": 647.2566269611652, "timestamp": "2025-12-17T23:38:06.521138+00:00", "meta": {"OBJECT_NAME": "MICROCARB", "OBJECT_ID": "2025-156A", "EPOCH": "2025-12-17T11:26:30.117408", "MEAN_MOTION": 14.72064901, "ECCENTRICITY": 0.00174088, "INCLINATION": 98.0022, "RA_OF_ASC_NODE": 66.7462, "ARG_OF_PERICENTER": 130.4021, "MEAN_ANOMALY": 229.8709, "EPHEMERIS_TYPE": 0, "CLASSIFICATION_TYPE": "U", "NORAD_CAT_ID": 64899, "ELEMENT_SET_NO": 999, "REV_AT_EPOCH": 2123, "BSTAR": 0.00010424062, "MEAN_MOTION_DOT": 6.07e-06, "MEAN_MOTION_DDOT": 0}, "tle": {"line1": "1 64899U 25156A   25351.47673747  .00000607  00000+0  10424-3 0  9992", "line2": "2 64899  98.0022  66.7462 0017408 130.4021 229.8709 14.72064901 21230"}}, "geometry": {"type": "Point", "coordinates": [-111.53758258282863, 8.581279737544811]}}, {"type": "Feature", "properties": {"norad_id": 64900, "name": "CO3D 3", "group": "resource", "lat": 39.50498589870368, "lon": 62.096297913197816, "alt_km": 501.5657967253601, "timestamp": "2025-12-17T23:38:06.521152+00:00", "meta": {"OBJECT_NAME": "CO3D 3", "OBJECT_ID": "2025-156B", "EPOCH": "2025-12-17T17:08:28.374720", "MEAN_MOTION": 15.20201422, "ECCENTRICITY": 0.00014, "INCLINATION": 97.4341, "RA_OF_ASC_NODE": 68.0098, "ARG_OF_PERICENTER": 84.1506, "MEAN_ANOMALY": 275.9889, "EPHEMERIS_TYPE": 0, "CLASSIFICATION_TYPE": "U", "NORAD_CAT_ID": 64900, "ELEMENT_SET_NO": 999, "REV_AT_EPOCH": 2196, "BSTAR": 6.5354e-05, "MEAN_MOTION_DOT": 1.347e-05, "MEAN_MOTION_DDOT": 0}, "tle": {"line1": "1 64900U 25156B   25351.71421730  .00001347  00000+0  65354-4 0  9990", "line2": "2 64900  97.4341  68.0098 0001400  84.1506 275.9889 15.20201422 21964"}}, "geometry": {"type": "Point", "coordinates": [62.096297913197816, 39.50498589870368]}}, {"type": "Feature", "properties": {"norad_id": 64901, "name": "CO3D 4", "group": "resource", "lat": 38.60568197325965, "lon": 62.292375766634265, "alt_km": 502.97053532166774, "timestamp": "2025-12-17T23:38:06.521164+00:00", "meta": {"OBJECT_NAME": "CO3D 4", "OBJECT_ID": "2025-156C", "EPOCH": "2025-12-17T15:33:55.698048", "MEAN_MOTION": 15.20212443, "ECCENTRICITY": 0.00011478, "INCLINATION": 97.4346, "RA_OF_ASC_NODE": 67.9457, "ARG_OF_PERICENTER": 180.0092, "MEAN_ANOMALY": 180.1143, "EPHEMERIS_TYPE": 0, "CLASSIFICATION_TYPE": "U", "NORAD_CAT_ID": 64901, "ELEMENT_SET_NO": 999, "REV_AT_EPOCH": 2195, "BSTAR": 0.00024180993, "MEAN_MOTION_DOT": 5.172e-05, "MEAN_MOTION_DDOT": 0}, "tle": {"line1": "1 64901U 25156C   25351.64856132  .00005172  00000+0  24181-3 0  9993", "line2": "2 64901  97.4346  67.9457 0001147 180.0092 180.1143 15.20212443 21955"}}, "geometry": {"type": "Point", "coordinates": [62.292375766634265, 38.60568197325965]}}]}